{
  "type": "FeatureCollection",
  "features": [
    {
      "type": "Feature",
      "properties": {
        "norad_id": 30594,
        "name": "FENGYUN 1C DEB",
        "group": "fengyun-1c-debris",
        "lat": -28.445520785273185,
        "lon": -157.09638142728457,
        "alt_km": 700.4781342492552,
        "timestamp": "2025-12-07T20:38:14.341222+00:00",
        "meta_object_name": "FENGYUN 1C DEB",
        "meta_object_id": "1999-025ALZ",
        "meta_epoch": "2025-12-06T21:02:56.224032",
        "meta_mean_motion": 14.17332238,
        "meta_eccentricity": 0.01936541,
        "meta_inclination": 99.1517,
        "meta_ra_of_asc_node": 196.8816,
        "meta_arg_of_pericenter": 333.0071,
        "meta_mean_anomaly": 26.1131,
        "meta_ephemeris_type": 0,
        "meta_classification_type": "U",
        "meta_norad_cat_id": 30594,
        "meta_element_set_no": 999,
        "meta_rev_at_epoch": 97496,
        "meta_bstar": 0.00032887954,
        "meta_mean_motion_dot": 7.5e-06,
        "meta_mean_motion_ddot": 0,
        "tle_line1": "1 30594U 99025ALZ 25340.87703963  .00000750  00000+0  32888-3 0  9996",
        "tle_line2": "2 30594  99.1517 196.8816 0193654 333.0071  26.1131 14.17332238974962"
      },
      "geometry": {
        "type": "Point",
        "coordinates": [
          -157.09638142728457,
          -28.445520785273185
        ]
      }
    },
    {
      "type": "Feature",
      "properties": {
        "norad_id": 30596,
        "name": "FENGYUN 1C DEB",
        "group": "fengyun-1c-debris",
        "lat": 2.6139276188566036,
        "lon": -20.68300994034788,
        "alt_km": 685.5215409849607,
        "timestamp": "2025-12-07T20:38:14.341231+00:00",
        "meta_object_name": "FENGYUN 1C DEB",
        "meta_object_id": "1999-025AMB",
        "meta_epoch": "2025-12-06T23:06:47.260800",
        "meta_mean_motion": 14.34331847,
        "meta_eccentricity": 0.02476281,
        "meta_inclination": 98.4124,
        "meta_ra_of_asc_node": 338.8302,
        "meta_arg_of_pericenter": 306.3883,
        "meta_mean_anomaly": 105.7005,
        "meta_ephemeris_type": 0,
        "meta_classification_type": "U",
        "meta_norad_cat_id": 30596,
        "meta_element_set_no": 999,
        "meta_rev_at_epoch": 98478,
        "meta_bstar": 0.00074204031,
        "meta_mean_motion_dot": 2.893e-05,
        "meta_mean_motion_ddot": 0,
        "tle_line1": "1 30596U 99025AMB 25340.96304700  .00002893  00000+0  74204-3 0  9992",
        "tle_line2": "2 30596  98.4124 338.8302 0247628 306.3883 105.7005 14.34331847984782"
      },
      "geometry": {
        "type": "Point",
        "coordinates": [
          -20.68300994034788,
          2.6139276188566036
        ]
      }
    },
    {
      "type": "Feature",
      "properties": {
        "norad_id": 30597,
        "name": "FENGYUN 1C DEB",
        "group": "fengyun-1c-debris",
        "lat": -54.25350519498755,
        "lon": -69.68756626902356,
        "alt_km": 616.9883436179243,
        "timestamp": "2025-12-07T20:38:14.341245+00:00",
        "meta_object_name": "FENGYUN 1C DEB",
        "meta_object_id": "1999-025AMC",
        "meta_epoch": "2025-12-06T06:14:51.251424",
        "meta_mean_motion": 14.91478421,
        "meta_eccentricity": 0.00441753,
        "meta_inclination": 98.9461,
        "meta_ra_of_asc_node": 275.8581,
        "meta_arg_of_pericenter": 184.7925,
        "meta_mean_anomaly": 175.2873,
        "meta_ephemeris_type": 0,
        "meta_classification_type": "U",
        "meta_norad_cat_id": 30597,
        "meta_element_set_no": 999,
        "meta_rev_at_epoch": 98440,
        "meta_bstar": 0.0089639581,
        "meta_mean_motion_dot": 0.00092448,
        "meta_mean_motion_ddot": 0,
        "tle_line1": "1 30597U 99025AMC 25340.26031541  .00092448  00000+0  89640-2 0  9990",
        "tle_line2": "2 30597  98.9461 275.8581 0044175 184.7925 175.2873 14.91478421984405"
      },
      "geometry": {
        "type": "Point",
        "coordinates": [
          -69.68756626902356,
          -54.25350519498755
        ]
      }
    },
    {
      "type": "Feature",
      "properties": {
        "norad_id": 30599,
        "name": "FENGYUN 1C DEB",
        "group": "fengyun-1c-debris",
        "lat": -37.72006048276178,
        "lon": 166.8883906555935,
        "alt_km": 999.1815475689746,
        "timestamp": "2025-12-07T20:38:14.341255+00:00",
        "meta_object_name": "FENGYUN 1C DEB",
        "meta_object_id": "1999-025AME",
        "meta_epoch": "2025-12-06T11:27:52.089408",
        "meta_mean_motion": 14.19643972,
        "meta_eccentricity": 0.0302816,
        "meta_inclination": 98.6031,
        "meta_ra_of_asc_node": 352.2673,
        "meta_arg_of_pericenter": 2.8987,
        "meta_mean_anomaly": 357.3856,
        "meta_ephemeris_type": 0,
        "meta_classification_type": "U",
        "meta_norad_cat_id": 30599,
        "meta_element_set_no": 999,
        "meta_rev_at_epoch": 97078,
        "meta_bstar": 0.001412668,
        "meta_mean_motion_dot": 4.681e-05,
        "meta_mean_motion_ddot": 0,
        "tle_line1": "1 30599U 99025AME 25340.47768622  .00004681  00000+0  14127-2 0  9992",
        "tle_line2": "2 30599  98.6031 352.2673 0302816   2.8987 357.3856 14.19643972970781"
      },
      "geometry": {
        "type": "Point",
        "coordinates": [
          166.8883906555935,
          -37.72006048276178
        ]
      }
    },
    {
      "type": "Feature",
      "properties": {
        "norad_id": 30600,
        "name": "FENGYUN 1C DEB",
        "group": "fengyun-1c-debris",
        "lat": 5.418496164896407,
        "lon": 107.74366856421022,
        "alt_km": 851.0068670744395,
        "timestamp": "2025-12-07T20:38:14.341265+00:00",
        "meta_object_name": "FENGYUN 1C DEB",
        "meta_object_id": "1999-025AMF",
        "meta_epoch": "2025-11-30T15:24:54.916992",
        "meta_mean_motion": 14.07030871,
        "meta_eccentricity": 0.0330604,
        "meta_inclination": 98.3855,
        "meta_ra_of_asc_node": 280.231,
        "meta_arg_of_pericenter": 282.0902,
        "meta_mean_anomaly": 74.3412,
        "meta_ephemeris_type": 0,
        "meta_classification_type": "U",
        "meta_norad_cat_id": 30600,
        "meta_element_set_no": 999,
        "meta_rev_at_epoch": 94262,
        "meta_bstar": 0.0058342,
        "meta_mean_motion_dot": 0.00016035,
        "meta_mean_motion_ddot": 0,
        "tle_line1": "1 30600U 99025AMF 25334.64230228  .00016035  00000+0  58342-2 0  9996",
        "tle_line2": "2 30600  98.3855 280.2310 0330604 282.0902  74.3412 14.07030871942629"
      },
      "geometry": {
        "type": "Point",
        "coordinates": [
          107.74366856421022,
          5.418496164896407
        ]
      }
    },
    {
      "type": "Feature",
      "properties": {
        "norad_id": 30602,
        "name": "FENGYUN 1C DEB",
        "group": "fengyun-1c-debris",
        "lat": 10.154011222368842,
        "lon": 76.67686808226286,
        "alt_km": 594.0503192643882,
        "timestamp": "2025-12-07T20:38:14.341275+00:00",
        "meta_object_name": "FENGYUN 1C DEB",
        "meta_object_id": "1999-025AMH",
        "meta_epoch": "2025-12-07T06:02:59.909856",
        "meta_mean_motion": 14.9001758,
        "meta_eccentricity": 0.0008613,
        "meta_inclination": 99.0332,
        "meta_ra_of_asc_node": 254.3503,
        "meta_arg_of_pericenter": 137.2862,
        "meta_mean_anomaly": 13.7349,
        "meta_ephemeris_type": 0,
        "meta_classification_type": "U",
        "meta_norad_cat_id": 30602,
        "meta_element_set_no": 999,
        "meta_rev_at_epoch": 97723,
        "meta_bstar": 0.011955052,
        "meta_mean_motion_dot": 0.00117282,
        "meta_mean_motion_ddot": 0,
        "tle_line1": "1 30602U 99025AMH 25341.25208229  .00117282  00000+0  11955-1 0  9993",
        "tle_line2": "2 30602  99.0332 254.3503 0008613 137.2862  13.7349 14.90017580977238"
      },
      "geometry": {
        "type": "Point",
        "coordinates": [
          76.67686808226286,
          10.154011222368842
        ]
      }
    },
    {
      "type": "Feature",
      "properties": {
        "norad_id": 30603,
        "name": "FENGYUN 1C DEB",
        "group": "fengyun-1c-debris",
        "lat": 1.2619284660852552,
        "lon": -174.5301784494813,
        "alt_km": 848.3618972674458,
        "timestamp": "2025-12-07T20:38:14.341313+00:00",
        "meta_object_name": "FENGYUN 1C DEB",
        "meta_object_id": "1999-025AMJ",
        "meta_epoch": "2025-12-07T00:49:16.893120",
        "meta_mean_motion": 13.84094691,
        "meta_eccentricity": 0.01831547,
        "meta_inclination": 98.4097,
        "meta_ra_of_asc_node": 4.5434,
        "meta_arg_of_pericenter": 220.9319,
        "meta_mean_anomaly": 167.1934,
        "meta_ephemeris_type": 0,
        "meta_classification_type": "U",
        "meta_norad_cat_id": 30603,
        "meta_element_set_no": 999,
        "meta_rev_at_epoch": 94797,
        "meta_bstar": 0.0020251219,
        "meta_mean_motion_dot": 2.529e-05,
        "meta_mean_motion_ddot": 0,
        "tle_line1": "1 30603U 99025AMJ 25341.03422330  .00002529  00000+0  20251-2 0  9998",
        "tle_line2": "2 30603  98.4097   4.5434 0183154 220.9319 167.1934 13.84094691947971"
      },
      "geometry": {
        "type": "Point",
        "coordinates": [
          -174.5301784494813,
          1.2619284660852552
        ]
      }
    }
  ]
}